49P/Arend-Rigaux,e,19.0588,118.7926,332.9353,3.570056,0.1461139,0.59907020,352.1653,02/16.0/2025,2000,g 11.3,4.4
# From MPEC 2025-CE3
50P/Arend,e,19.0994,355.1468,49.3251,4.087737,0.1192558,0.52980412,33.3105,02/16.0/2025,2000,g  9.5,6.0
# From MPEC 2025-CE3
60P/Tsuchinshan,e,3.5798,267.3973,216.9333,3.530171,0.1485971,0.53386718,337.0210,02/16.0/2025,2000,g 11.5,6.0
# From MPEC 2025-CE3
62P/Tsuchinshan,e,4.7373,68.6663,47.3228,3.370712,0.1592655,0.62469886,66.7045,02/16.0/2025,2000,g  8.0,10.0
# From MPEC 2025-CE3
74P/Smirnova-Chernykh,e,6.2942,53.4877,78.9314,4.988851,0.0884511,0.03656760,303.6908,02/16.0/2025,2000,g  5.0,6.0
# From MPEC 2025-CE3
88P/Howell,e,4.3820,56.6682,235.8883,3.108107,0.1798706,0.56318563,288.8039,02/16.0/2025,2000,g 11.0,6.0
# From MPEC 2025-CE3
89P/Russell,e,12.0721,41.3443,250.4083,3.750601,0.1356915,0.40754685,44.2902,02/16.0/2025,2000,g 11.5,6.0
# From MPEC 2025-CE3
103P/Hartley,e,13.6094,219.7533,181.3231,3.475386,0.1521246,0.69359858,74.9257,02/16.0/2025,2000,g  8.5,8.0
# From MPEC 2025-CE3
130P/McNaught-Hughes,e,6.0630,70.1804,246.2015,3.383930,0.1583332,0.46106060,48.6021,02/16.0/2025,2000,g 10.0,6.0
# From MPEC 2025-CE3
136P/Mueller,e,9.4275,137.4229,225.2962,4.185107,0.1151183,0.29311460,5.0241,02/16.0/2025,2000,g 11.0,4.0
# From MPEC 2025-CE3
146P/Shoemaker-LINEAR,e,23.1201,53.3701,317.0680,4.027359,0.1219477,0.64758322,23.7266,02/16.0/2025,2000,g 15.0,4.0
# From MPEC 2025-CE3
154P/Brewington,e,17.6360,342.9989,47.9462,4.797837,0.0937855,0.67636940,23.2355,02/16.0/2025,2000,g  2.5,12.0
# From MPEC 2025-CE3
158P/Kowal-LINEAR,e,7.4098,124.7886,226.3147,5.655735,0.0732775,0.11805460,67.4806,02/16.0/2025,2000,g  9.0,4.0
# From MPEC 2025-CE3
170P/Christensen,e,10.1257,142.6447,224.8399,4.196842,0.1146358,0.30523109,77.0209,02/16.0/2025,2000,g 12.0,4.0
# From MPEC 2025-CE3
172P/Yeung,e,11.2238,30.8821,208.9178,4.222742,0.1135827,0.20476468,330.5070,02/16.0/2025,2000,g 13.0,4.0
# From MPEC 2025-CE3
195P/Hill,e,36.4193,243.1051,250.5357,6.449829,0.0601702,0.31148609,349.7647,02/16.0/2025,2000,g  8.5,4.0
# From MPEC 2025-CE3
208P/McMillan,e,4.4122,36.3356,310.7168,4.038846,0.1214278,0.37388048,21.3661,02/16.0/2025,2000,g 12.5,4.0
# From MPEC 2025-CE3
217P/LINEAR,e,12.8654,125.3716,247.0353,3.944491,0.1258107,0.68909256,347.6778,02/16.0/2025,2000,g 12.0,4.0
# From MPEC 2025-CE3
219P/LINEAR,e,11.5336,230.9483,107.7980,3.652354,0.1412033,0.35500792,51.8976,02/16.0/2025,2000,g 11.0,4.0
# From MPEC 2025-CE3
229P/Gibbs,e,26.0973,157.8839,224.2108,3.922913,0.1268502,0.37791916,357.7462,02/16.0/2025,2000,g 13.0,4.0
# From MPEC 2025-CE3
235P/LINEAR,e,9.8129,200.2082,352.0766,3.449386,0.1538478,0.42643073,312.3934,02/16.0/2025,2000,g 12.0,4.0
# From MPEC 2025-CE3
237P/LINEAR,e,14.0158,245.3546,25.4790,3.515303,0.1495409,0.43320049,96.2013,02/16.0/2025,2000,g 14.5,2.0
# From MPEC 2025-CE3
242P/Spahr,e,32.4264,180.2844,244.9277,5.537319,0.0756406,0.28275513,4.1423,02/16.0/2025,2000,g  8.0,4.0
# From MPEC 2025-CE3
253P/PANSTARRS,e,4.9440,146.8570,230.8340,3.463802,0.1528884,0.41486485,18.0392,02/16.0/2025,2000,g 14.5,4.0
# From MPEC 2025-CE3
268P/Bernardi,e,15.6613,125.6320,0.0134,4.591685,0.1001719,0.47456334,5.9629,02/16.0/2025,2000,g 14.0,4.0
# From MPEC 2025-CE3
276P/Vorobjov,e,14.7926,211.3223,199.2805,5.356475,0.0795033,0.27215421,5.3439,02/16.0/2025,2000,g 11.5,4.0
# From MPEC 2025-CE3
294P/LINEAR,e,17.7405,309.6046,237.5689,3.191611,0.1728579,0.60110673,329.5466,02/16.0/2025,2000,g 15.5,4.0
# From MPEC 2025-CE3
305P/Skiff,e,11.6715,240.1045,147.4201,4.637404,0.0986942,0.69409339,8.9660,02/16.0/2025,2000,g 18.0,4.0
# From MPEC 2025-CE3
323P/SOHO,e,5.2104,323.9530,353.3216,2.440231,0.2585578,0.98344341,0.0000,03/14.2305/2025,2000,g 20.0,4.0
# From MPEC 2025-CE3
333P/LINEAR,e,132.0224,115.7064,26.0173,4.220277,0.1136822,0.73628618,8.9471,02/16.0/2025,2000,g 15.0,4.0
# From MPEC 2025-CE3
338P/McNaught,e,25.3790,9.7776,4.6182,3.895418,0.1281955,0.41266440,25.2122,02/16.0/2025,2000,g 12.0,4.0
# From MPEC 2025-CE3
382P/Larson,e,8.2615,170.6419,162.2402,5.899511,0.0687828,0.26692489,82.5492,02/16.0/2025,2000,g  8.0,4.0
# From MPEC 2025-CE3
384P/Kowalski,e,7.2836,354.1899,37.7115,2.898048,0.1997771,0.61629396,29.9399,02/16.0/2025,2000,g 19.5,4.0
# From MPEC 2025-CE3
404P/Bressi,e,9.8043,260.0418,169.0950,4.720493,0.0960999,0.12452450,45.3879,02/16.0/2025,2000,g 10.0,4.0
# From MPEC 2025-CE3
408P/Novichonok-Gerke,e,19.3532,189.4498,226.6718,4.745320,0.0953467,0.26852051,82.3741,02/16.0/2025,2000,g 11.0,4.0
# From MPEC 2025-CE3
450P/LONEOS,e,10.6166,124.4724,22.5996,7.955633,0.0439230,0.31395007,328.8921,02/16.0/2025,2000,g  6.5,4.0
# From MPEC 2025-CE3
456P/PANSTARRS,e,16.9669,243.1523,233.0389,3.171538,0.1745015,0.11644222,349.8588,02/16.0/2025,2000,g 13.5,4.0
# From MPEC 2025-CE3
470P/PANSTARRS,e,8.8443,246.1734,151.7455,4.466359,0.1044176,0.38956031,44.5861,02/16.0/2025,2000,g 15.5,4.0
# From MPEC 2025-CE3
472P/NEAT-LINEAR,e,10.8244,205.8940,218.8763,7.798816,0.0452544,0.56551824,9.7924,02/16.0/2025,2000,g 10.5,4.0
# From MPEC 2025-CE3
476P/PANSTARRS,e,19.0053,57.0529,46.7336,4.777103,0.0943968,0.34618039,11.5622,02/16.0/2025,2000,g 12.5,4.0
# From MPEC 2025-CE3
487P/SidingSpring,e,39.3670,49.2083,0.8569,5.165173,0.0839608,0.64862442,9.9383,02/16.0/2025,2000,g 13.5,4.0
# From MPEC 2025-CE3
492P/LINEAR,e,11.4004,11.3087,40.9926,5.762843,0.0712441,0.69076395,14.9979,02/16.0/2025,2000,g 15.0,4.0
# From MPEC 2025-CE3
496P/Hill,e,14.8146,63.5878,42.2482,6.103064,0.0653706,0.73438786,358.5432,02/16.0/2025,2000,g 14.0,4.0
# From MPC107687
1I/`Oumuamua,h,09/09.4886/2017,122.6778,24.5997,241.6845,1.199252,0.255240,2000,23.0,2.0
# From MPEC 2023-L37
2I/Borisov,h,12/08.5548/2019,44.0527,308.1480,209.1251,3.356633,2.006548,2000,11.0,4.0
